KONDOR-FKA NO. 1        
1 56756U 23074A   26066.42573583  .00007463  00000+0  35188-3 0  9999
2 56756  97.4394 262.4533 0001730  84.6258 275.5174 15.19772289154233
KESTREL-0A              
1 64624U 25138D   26068.97901572  .00012392  00000+0  55702-3 0  9991
2 64624  97.4430  74.1203 0015891 109.5327 250.7627 15.21159497 38856
